STARLINK-34447          
1 64710U 25142Q   25187.58335648 -.01226518  00000+0 -55794-2 0  9995
2 64710  69.9938 228.4325 0003825 276.7561  18.0584 15.86022136  2453
STARLINK-34312          
1 64711U 25142R   25187.58335648 -.01241279  00000+0 -56434-2 0  9999
2 64711  69.9934 228.4295 0003935 275.2113  21.8933 15.86061981  2456
STARLINK-34515          
1 64712U 25142S   25187.58335648 -.01253642  00000+0 -56957-2 0  9997
2 64712  69.9935 228.4267 0003965 274.7278  24.6736 15.86100822  2131
STARLINK-34583          
1 64713U 25142T   25187.58335648 -.01259883  00000+0 -57174-2 0  9993
2 64713  69.9935 228.4243 0003977 274.0321  27.4966 15.86137160  2132
STARLINK-34574          
1 64714U 25142U   25187.58335648 -.01267689  00000+0 -57474-2 0  9990
2 64714  69.9934 228.4217 0003953 273.4727  30.2403 15.86172803  2298
STARLINK-34533          
1 64715U 25142V   25187.58335648 -.01278315  00000+0 -57913-2 0  9997
2 64715  69.9934 228.4188 0003983 274.4768  31.5896 15.86209207  2227
STARLINK-34548          
1 64716U 25142W   25187.58335648 -.01277279  00000+0 -57776-2 0  9993
2 64716  69.9936 228.4165 0003798 278.3483  29.7193 15.86241775  2243
STARLINK-34568          
1 64717U 25142X   25187.58335648 -.01297561  00000+0 -58686-2 0  9991
2 64717  69.9937 228.4139 0003941 274.1430  36.2926 15.86283864  2299
STARLINK-34546          
1 64718U 25142Y   25187.58335648 -.01300676  00000+0 -58758-2 0  9994
2 64718  69.9938 228.4111 0003919 275.7198  37.1026 15.86314507  2452
STARLINK-34577          
1 64719U 25142Z   25187.58335648 -.01318028  00000+0 -59443-2 0  9997
2 64719  69.9935 228.4056 0003917 276.4371  40.9456 15.86384238  2296
STARLINK-34572          
1 64720U 25142AA  25187.58335648 -.01316200  00000+0 -59436-2 0  9991
2 64720  69.9938 228.4085 0003960 274.9189  40.1474 15.86353910  2454
STARLINK-34558          
1 64721U 25142AB  25187.58335648 -.01335610  00000+0 -60217-2 0  9997
2 64721  69.9935 228.4031 0003889 273.5126  46.0519 15.86427573  2248
MTG-S1                  
1 64723U 25143A   25185.12223620 -.00000028  00000+0  57139-3 0  9994
2 64723  21.2466  68.2611 8286601 179.5972 182.2069  1.12566612    42
PROGRESS-MS 31          
1 64751U 25146A   25186.82847031  .00007133  00000+0  13106-3 0  9993
2 64751  51.6342 214.6801 0002507 338.0294  22.0587 15.50389624518057
